OBJECT_NAME,OBJECT_ID,EPOCH,MEAN_MOTION,ECCENTRICITY,INCLINATION,RA_OF_ASC_NODE,ARG_OF_PERICENTER,MEAN_ANOMALY,EPHEMERIS_TYPE,CLASSIFICATION_TYPE,NORAD_CAT_ID,ELEMENT_SET_NO,REV_AT_EPOCH,BSTAR,MEAN_MOTION_DOT,MEAN_MOTION_DDOT
ONEWEB-0524,2022-138AF,2024-01-20T16:41:05.325792,13.20771828,.000249,87.9180,89.3095,74.5048,285.6360,0,U,54142,999,6421,-.36633E-4,-.2E-7,0
ONEWEB-0525,2022-138AG,2024-01-20T19:46:22.765440,13.19736791,.0002201,87.9201,119.8218,113.1327,247.0037,0,U,54143,999,6184,.24817E-2,.1007E-4,0
ONEWEB-0531,2022-138AK,2024-01-20T16:20:38.476032,13.20772959,.0001799,87.9180,89.3017,65.4490,294.6831,0,U,54146,999,6421,.93106E-4,.51E-6,0
ONEWEB-0536,2022-138AM,2024-01-20T16:02:27.212928,13.20771354,.0001088,87.9178,89.3548,67.9515,292.1734,0,U,54148,999,6420,.12505E-3,.64E-6,0
ONEWEB-0527,2022-166A,2024-01-20T15:19:55.793280,13.21824597,.0001952,87.9213,58.8776,90.6935,269.4422,0,U,54642,999,5592,.11558E-3,.61E-6,0
ONEWEB-0539,2022-166C,2024-01-20T14:32:14.672832,13.21825928,.0001759,87.9218,58.8661,102.2087,257.9244,0,U,54644,999,5592,.94405E-4,.52E-6,0
ONEWEB-0540,2022-166D,2024-01-20T18:02:18.525984,13.21825008,.0001834,87.9211,58.8640,104.8620,255.2717,0,U,54645,999,5595,.22094E-3,.104E-5,0
ONEWEB-0542,2022-166E,2024-01-20T14:45:51.768864,13.21825083,.0001412,87.9217,58.8648,108.7573,251.3714,0,U,54646,999,5593,-.47429E-3,-.183E-5,0
ONEWEB-0545,2022-166F,2024-01-20T15:47:11.805792,13.21819229,.0001678,87.9205,58.8925,120.0540,240.0761,0,U,54647,999,5591,-.72724E-3,-.287E-5,0
ONEWEB-0582,2022-166H,2024-01-20T14:20:52.988928,13.21824743,.0002029,87.9212,58.9034,106.1735,253.9622,0,U,54649,999,5592,.70442E-4,.42E-6,0
ONEWEB-0583,2022-166J,2024-01-20T14:36:47.052288,13.21826053,.0002212,87.9210,58.9041,89.5994,270.5393,0,U,54650,999,5594,.10516E-3,.56E-6,0
ONEWEB-0586,2022-166M,2024-01-20T16:00:47.751840,13.21825187,.0001657,87.9211,58.8798,101.4543,258.6777,0,U,54653,999,5593,-.43008E-3,-.165E-5,0
ONEWEB-0587,2022-166N,2024-01-20T14:25:27.674400,13.21826232,.0002183,87.9211,58.8506,92.4433,267.6951,0,U,54654,999,5561,.31171E-3,.142E-5,0
ONEWEB-0589,2022-166P,2024-01-20T15:56:15.202176,13.21823285,.0000957,87.9220,58.8636,113.9219,246.2016,0,U,54655,999,5595,.80732E-5,.16E-6,0
ONEWEB-0590,2022-166Q,2024-01-20T14:41:19.588128,13.21825540,.0001799,87.9216,58.8760,88.7777,271.3563,0,U,54656,999,5592,-.12E-2,-.483E-5,0
ONEWEB-0591,2022-166R,2024-01-20T14:59:29.298624,13.21825152,.0001649,87.9214,58.8759,98.2279,261.9042,0,U,54657,999,5549,.24143E-4,.23E-6,0
ONEWEB-0592,2022-166S,2024-01-20T15:04:01.799904,13.21825538,.000149,87.9207,58.8464,97.8106,262.3197,0,U,54658,999,5584,-.64601E-3,-.254E-5,0
ONEWEB-0594,2022-166U,2024-01-20T16:05:20.573664,13.21839255,.000169,87.9214,58.8519,88.8412,271.2916,0,U,54660,999,5596,-.65844E-2,-.2706E-4,0
ONEWEB-0596,2022-166W,2024-01-20T14:54:57.659616,13.21825351,.0001439,87.9217,58.8556,91.1276,269.0023,0,U,54662,999,5594,.4057E-4,.3E-6,0
ONEWEB-0597,2022-166X,2024-01-20T14:27:41.682528,13.21825268,.0001559,87.9214,58.8606,106.9091,253.2214,0,U,54663,999,5547,-.35866E-3,-.135E-5,0
ONEWEB-0600,2022-166Y,2024-01-20T15:51:43.135488,13.21824888,.000174,87.9210,58.8977,104.5403,255.5924,0,U,54664,999,5592,.13177E-3,.67E-6,0
