ONEWEB-0524             
1 54142U 22138AF  24020.69520053 -.00000002  00000+0 -36633-4 0  9998
2 54142  87.9180  89.3095 0002490  74.5048 285.6360 13.20771828 63343
ONEWEB-0525             
1 54143U 22138AG  24020.82387460  .00001007  00000+0  24817-2 0  9990
2 54143  87.9201 119.8218 0002201 113.1327 247.0037 13.19736791 60971
ONEWEB-0531             
1 54146U 22138AK  24020.68100088  .00000051  00000+0  93106-4 0  9993
2 54146  87.9180  89.3017 0001799  65.4490 294.6831 13.20772959 63341
ONEWEB-0536             
1 54148U 22138AM  24020.66837052  .00000064  00000+0  12505-3 0  9998
2 54148  87.9178  89.3548 0001088  67.9515 292.1734 13.20771354 63337
ONEWEB-0527             
1 54642U 22166A   24020.63884020  .00000061  00000+0  11558-3 0  9996
2 54642  87.9213  58.8776 0001952  90.6935 269.4422 13.21824597 55475
ONEWEB-0539             
1 54644U 22166C   24020.60572538  .00000052  00000+0  94405-4 0  9996
2 54644  87.9218  58.8661 0001759 102.2087 257.9244 13.21825928 55921
ONEWEB-0540             
1 54645U 22166D   24020.75160331  .00000104  00000+0  22094-3 0  9999
2 54645  87.9211  58.8640 0001834 104.8620 255.2717 13.21825008 55483
ONEWEB-0542             
1 54646U 22166E   24020.61518251 -.00000183  00000+0 -47429-3 0  9991
2 54646  87.9217  58.8648 0001412 108.7573 251.3714 13.21825083 55937
ONEWEB-0545             
1 54647U 22166F   24020.65777553 -.00000287  00000+0 -72724-3 0  9999
2 54647  87.9205  58.8925 0001678 120.0540 240.0761 13.21819229 55446
ONEWEB-0582             
1 54649U 22166H   24020.59783552  .00000042  00000+0  70442-4 0  9993
2 54649  87.9212  58.9034 0002029 106.1735 253.9622 13.21824743 55929
ONEWEB-0583             
1 54650U 22166J   24020.60887792  .00000056  00000+0  10516-3 0  9998
2 54650  87.9210  58.9041 0002212  89.5994 270.5393 13.21826053 55940
ONEWEB-0586             
1 54653U 22166M   24020.66721935 -.00000165  00000+0 -43008-3 0  9998
2 54653  87.9211  58.8798 0001657 101.4543 258.6777 13.21825187 55465
ONEWEB-0587             
1 54654U 22166N   24020.60101475  .00000142  00000+0  31171-3 0  9995
2 54654  87.9211  58.8506 0002183  92.4433 267.6951 13.21826232 55618
ONEWEB-0589             
1 54655U 22166P   24020.66406484  .00000016  00000+0  80732-5 0  9999
2 54655  87.9220  58.8636 0000957 113.9219 246.2016 13.21823285 55486
ONEWEB-0590             
1 54656U 22166Q   24020.61203227 -.00000483  00000+0 -12000-2 0  9995
2 54656  87.9216  58.8760 0001799  88.7777 271.3563 13.21825540 55924
ONEWEB-0591             
1 54657U 22166R   24020.62464466  .00000023  00000+0  24143-4 0  9992
2 54657  87.9214  58.8759 0001649  98.2279 261.9042 13.21825152 55496
ONEWEB-0592             
1 54658U 22166S   24020.62779861 -.00000254  00000+0 -64601-3 0  9991
2 54658  87.9207  58.8464 0001490  97.8106 262.3197 13.21825538 55371
ONEWEB-0594             
1 54660U 22166U   24020.67037701 -.00002706  00000+0 -65844-2 0  9992
2 54660  87.9214  58.8519 0001690  88.8412 271.2916 13.21839255 55509
ONEWEB-0596             
1 54662U 22166W   24020.62150069  .00000030  00000+0  40570-4 0  9999
2 54662  87.9217  58.8556 0001439  91.1276 269.0023 13.21825351 55945
ONEWEB-0597             
1 54663U 22166X   24020.60256577 -.00000135  00000+0 -35866-3 0  9998
2 54663  87.9214  58.8606 0001559 106.9091 253.2214 13.21825268 55474
ONEWEB-0600             
1 54664U 22166Y   24020.66091592  .00000067  00000+0  13177-3 0  9992
2 54664  87.9210  58.8977 0001740 104.5403 255.5924 13.21824888 55453
